{"type": "FeatureCollection", "features": [ {"type": "Feature", "properties": {"norad_id": 34976, "name": "COSMOS 2251 DEB", "group": "cosmos-2251-debris", "lat": -69.30482368857379, "lon": 172.63494014205057, "alt_km": 648.6845536408991, "timestamp": "2025-12-14T03:55:53.183677+00:00", "meta": {"OBJECT_NAME": "COSMOS 2251 DEB", "OBJECT_ID": "1993-036AFF", "EPOCH": "2025-12-13T07:56:41.548416", "MEAN_MOTION": 14.76592606, "ECCENTRICITY": 0.00477865, "INCLINATION": 74.0573, "RA_OF_ASC_NODE": 305.0908, "ARG_OF_PERICENTER": 351.7556, "MEAN_ANOMALY": 160.4025, "EPHEMERIS_TYPE": 0, "CLASSIFICATION_TYPE": "U", "NORAD_CAT_ID": 34976, "ELEMENT_SET_NO": 999, "REV_AT_EPOCH": 88282, "BSTAR": 0.0027408178, "MEAN_MOTION_DOT": 0.00019521, "MEAN_MOTION_DDOT": 0}, "tle": {"line1": "1 34976U 93036AFF 25347.33103644  .00019521  00000+0  27408-2 0  9995", "line2": "2 34976  74.0573 305.0908 0047786 351.7556 160.4025 14.76592606882828"}}, "geometry": {"type": "Point", "coordinates": [172.63494014205057, -69.30482368857379]}}, {"type": "Feature", "properties": {"norad_id": 34979, "name": "COSMOS 2251 DEB", "group": "cosmos-2251-debris", "lat": -38.63033618874623, "lon": -108.7586645003489, "alt_km": 605.5395070953846, "timestamp": "2025-12-14T03:55:53.183687+00:00", "meta": {"OBJECT_NAME": "COSMOS 2251 DEB", "OBJECT_ID": "1993-036AFJ", "EPOCH": "2025-12-12T18:01:47.285472", "MEAN_MOTION": 14.79355738, "ECCENTRICITY": 0.00490418, "INCLINATION": 74.0395, "RA_OF_ASC_NODE": 267.2405, "ARG_OF_PERICENTER": 345.1365, "MEAN_ANOMALY": 14.8366, "EPHEMERIS_TYPE": 0, "CLASSIFICATION_TYPE": "U", "NORAD_CAT_ID": 34979, "ELEMENT_SET_NO": 999, "REV_AT_EPOCH": 88220, "BSTAR": 0.0018975921, "MEAN_MOTION_DOT": 0.00014425, "MEAN_MOTION_DDOT": 0}, "tle": {"line1": "1 34979U 93036AFJ 25346.75124173  .00014425  00000+0  18976-2 0  9991", "line2": "2 34979  74.0395 267.2405 0049041 345.1365  14.8366 14.79355738882203"}}, "geometry": {"type": "Point", "coordinates": [-108.7586645003489, -38.63033618874623]}}, {"type": "Feature", "properties": {"norad_id": 34990, "name": "COSMOS 2251 DEB", "group": "cosmos-2251-debris", "lat": -51.30821709301949, "lon": 89.62535493658326, "alt_km": 754.6961207303893, "timestamp": "2025-12-14T03:55:53.183697+00:00", "meta": {"OBJECT_NAME": "COSMOS 2251 DEB", "OBJECT_ID": "1993-036AFN", "EPOCH": "2025-12-11T11:35:34.713024", "MEAN_MOTION": 14.42369611, "ECCENTRICITY": 0.001637, "INCLINATION": 74.0455, "RA_OF_ASC_NODE": 253.6657, "ARG_OF_PERICENTER": 317.4187, "MEAN_ANOMALY": 42.5699, "EPHEMERIS_TYPE": 0, "CLASSIFICATION_TYPE": "U", "NORAD_CAT_ID": 34990, "ELEMENT_SET_NO": 999, "REV_AT_EPOCH": 87328, "BSTAR": 0.00064071244, "MEAN_MOTION_DOT": 2.095e-05, "MEAN_MOTION_DDOT": 0}, "tle": {"line1": "1 34990U 93036AFN 25345.48304066  .00002095  00000+0  64071-3 0  9992", "line2": "2 34990  74.0455 253.6657 0016370 317.4187  42.5699 14.42369611873284"}}, "geometry": {"type": "Point", "coordinates": [89.62535493658326, -51.30821709301949]}}, {"type": "Feature", "properties": {"norad_id": 34997, "name": "COSMOS 2251 DEB", "group": "cosmos-2251-debris", "lat": 53.764399834719185, "lon": -28.240531385746827, "alt_km": 782.6599680120071, "timestamp": "2025-12-14T03:55:53.183707+00:00", "meta": {"OBJECT_NAME": "COSMOS 2251 DEB", "OBJECT_ID": "1993-036AFV", "EPOCH": "2025-12-12T15:07:37.525152", "MEAN_MOTION": 14.4555903, "ECCENTRICITY": 0.00978968, "INCLINATION": 73.8801, "RA_OF_ASC_NODE": 311.4025, "ARG_OF_PERICENTER": 286.4207, "MEAN_ANOMALY": 72.6207, "EPHEMERIS_TYPE": 0, "CLASSIFICATION_TYPE": "U", "NORAD_CAT_ID": 34997, "ELEMENT_SET_NO": 999, "REV_AT_EPOCH": 70745, "BSTAR": 0.0024908472, "MEAN_MOTION_DOT": 9.311e-05, "MEAN_MOTION_DDOT": 0}, "tle": {"line1": "1 34997U 93036AFV 25346.63029543  .00009311  00000+0  24908-2 0  9993", "line2": "2 34997  73.8801 311.4025 0097896 286.4207  72.6207 14.45559030707458"}}, "geometry": {"type": "Point", "coordinates": [-28.240531385746827, 53.764399834719185]}}, {"type": "Feature", "properties": {"norad_id": 34998, "name": "COSMOS 2251 DEB", "group": "cosmos-2251-debris", "lat": -43.29320721846316, "lon": 141.6363796039347, "alt_km": 719.589553881171, "timestamp": "2025-12-14T03:55:53.183717+00:00", "meta": {"OBJECT_NAME": "COSMOS 2251 DEB", "OBJECT_ID": "1993-036AFW", "EPOCH": "2025-12-12T20:58:41.255904", "MEAN_MOTION": 14.49281835, "ECCENTRICITY": 0.00211297, "INCLINATION": 74.0099, "RA_OF_ASC_NODE": 159.7316, "ARG_OF_PERICENTER": 305.1196, "MEAN_ANOMALY": 123.1096, "EPHEMERIS_TYPE": 0, "CLASSIFICATION_TYPE": "U", "NORAD_CAT_ID": 34998, "ELEMENT_SET_NO": 999, "REV_AT_EPOCH": 87422, "BSTAR": 0.00089404423, "MEAN_MOTION_DOT": 3.394e-05, "MEAN_MOTION_DDOT": 0}, "tle": {"line1": "1 34998U 93036AFW 25346.87408861  .00003394  00000+0  89404-3 0  9992", "line2": "2 34998  74.0099 159.7316 0021129 305.1196 123.1096 14.49281835874226"}}, "geometry": {"type": "Point", "coordinates": [141.6363796039347, -43.29320721846316]}}, {"type": "Feature", "properties": {"norad_id": 35000, "name": "COSMOS 2251 DEB", "group": "cosmos-2251-debris", "lat": -17.764667961631154, "lon": -170.76499127958365, "alt_km": 257.7576055905283, "timestamp": "2025-12-14T03:55:53.183727+00:00", "meta": {"OBJECT_NAME": "COSMOS 2251 DEB", "OBJECT_ID": "1993-036AFY", "EPOCH": "2025-12-10T00:39:45.535104", "MEAN_MOTION": 15.84722247, "ECCENTRICITY": 0.00096992, "INCLINATION": 73.9939, "RA_OF_ASC_NODE": 204.1935, "ARG_OF_PERICENTER": 175.3945, "MEAN_ANOMALY": 184.7377, "EPHEMERIS_TYPE": 0, "CLASSIFICATION_TYPE": "U", "NORAD_CAT_ID": 35000, "ELEMENT_SET_NO": 999, "REV_AT_EPOCH": 88472, "BSTAR": 0.007821664, "MEAN_MOTION_DOT": 0.0209211, "MEAN_MOTION_DDOT": 0}, "tle": {"line1": "1 35000U 93036AFY 25344.02761036  .02092110  00000+0  78217-2 0  9993", "line2": "2 35000  73.9939 204.1935 0009699 175.3945 184.7377 15.84722247884729"}}, "geometry": {"type": "Point", "coordinates": [-170.76499127958365, -17.764667961631154]}}, {"type": "Feature", "properties": {"norad_id": 35012, "name": "COSMOS 2251 DEB", "group": "cosmos-2251-debris", "lat": -73.99061212509898, "lon": 16.132059849863797, "alt_km": 692.5810383673597, "timestamp": "2025-12-14T03:55:53.183738+00:00", "meta": {"OBJECT_NAME": "COSMOS 2251 DEB", "OBJECT_ID": "1993-036AFZ", "EPOCH": "2025-12-13T01:46:23.941344", "MEAN_MOTION": 14.45549522, "ECCENTRICITY": 0.00816615, "INCLINATION": 74.0206, "RA_OF_ASC_NODE": 111.1129, "ARG_OF_PERICENTER": 251.2179, "MEAN_ANOMALY": 108.0107, "EPHEMERIS_TYPE": 0, "CLASSIFICATION_TYPE": "U", "NORAD_CAT_ID": 35012, "ELEMENT_SET_NO": 999, "REV_AT_EPOCH": 87566, "BSTAR": 0.00028205088, "MEAN_MOTION_DOT": 1.008e-05, "MEAN_MOTION_DDOT": 0}, "tle": {"line1": "1 35012U 93036AFZ 25347.07388821  .00001008  00000+0  28205-3 0  9998", "line2": "2 35012  74.0206 111.1129 0081661 251.2179 108.0107 14.45549522875667"}}, "geometry": {"type": "Point", "coordinates": [16.132059849863797, -73.99061212509898]}}, {"type": "Feature", "properties": {"norad_id": 35014, "name": "COSMOS 2251 DEB", "group": "cosmos-2251-debris", "lat": 12.160012140465332, "lon": -142.79488911557917, "alt_km": 641.8880622971128, "timestamp": "2025-12-14T03:55:53.183748+00:00", "meta": {"OBJECT_NAME": "COSMOS 2251 DEB", "OBJECT_ID": "1993-036AGB", "EPOCH": "2025-12-10T11:17:04.408224", "MEAN_MOTION": 14.75108648, "ECCENTRICITY": 0.0007489, "INCLINATION": 73.9993, "RA_OF_ASC_NODE": 47.9831, "ARG_OF_PERICENTER": 224.1256, "MEAN_ANOMALY": 135.932, "EPHEMERIS_TYPE": 0, "CLASSIFICATION_TYPE": "U", "NORAD_CAT_ID": 35014, "ELEMENT_SET_NO": 999, "REV_AT_EPOCH": 71303, "BSTAR": 0.0024781418, "MEAN_MOTION_DOT": 0.00016732, "MEAN_MOTION_DDOT": 0}, "tle": {"line1": "1 35014U 93036AGB 25344.47018991  .00016732  00000+0  24781-2 0  9993", "line2": "2 35014  73.9993  47.9831 0007489 224.1256 135.9320 14.75108648713038"}}, "geometry": {"type": "Point", "coordinates": [-142.79488911557917, 12.160012140465332]}}, {"type": "Feature", "properties": {"norad_id": 35015, "name": "COSMOS 2251 DEB", "group": "cosmos-2251-debris", "lat": 47.99590436710166, "lon": -109.29940185974992, "alt_km": 697.0748072084643, "timestamp": "2025-12-14T03:55:53.183758+00:00", "meta": {"OBJECT_NAME": "COSMOS 2251 DEB", "OBJECT_ID": "1993-036AGC", "EPOCH": "2025-12-08T23:19:05.687904", "MEAN_MOTION": 14.46841193, "ECCENTRICITY": 0.0074204, "INCLINATION": 73.9478, "RA_OF_ASC_NODE": 241.8046, "ARG_OF_PERICENTER": 111.6456, "MEAN_ANOMALY": 265.9615, "EPHEMERIS_TYPE": 0, "CLASSIFICATION_TYPE": "U", "NORAD_CAT_ID": 35015, "ELEMENT_SET_NO": 999, "REV_AT_EPOCH": 65386, "BSTAR": 0.00095869, "MEAN_MOTION_DOT": 3.57e-05, "MEAN_MOTION_DDOT": 0}, "tle": {"line1": "1 35015U 93036AGC 25342.97159361  .00003570  00000+0  95869-3 0  9996", "line2": "2 35015  73.9478 241.8046 0074204 111.6456 265.9615 14.46841193653863"}}, "geometry": {"type": "Point", "coordinates": [-109.29940185974992, 47.99590436710166]}}, {"type": "Feature", "properties": {"norad_id": 35016, "name": "COSMOS 2251 DEB", "group": "cosmos-2251-debris", "lat": 12.605975225973989, "lon": -64.50838426283688, "alt_km": 854.6531535043587, "timestamp": "2025-12-14T03:55:53.183769+00:00", "meta": {"OBJECT_NAME": "COSMOS 2251 DEB", "OBJECT_ID": "1993-036AGD", "EPOCH": "2025-12-12T14:13:37.756704", "MEAN_MOTION": 14.35060321, "ECCENTRICITY": 0.01145219, "INCLINATION": 73.9299, "RA_OF_ASC_NODE": 294.6934, "ARG_OF_PERICENTER": 211.7131, "MEAN_ANOMALY": 328.2097, "EPHEMERIS_TYPE": 0, "CLASSIFICATION_TYPE": "U", "NORAD_CAT_ID": 35016, "ELEMENT_SET_NO": 999, "REV_AT_EPOCH": 86780, "BSTAR": 0.00052896522, "MEAN_MOTION_DOT": 1.596e-05, "MEAN_MOTION_DDOT": 0}, "tle": {"line1": "1 35016U 93036AGD 25346.59279811  .00001596  00000+0  52897-3 0  9992", "line2": "2 35016  73.9299 294.6934 0114521 211.7131 328.2097 14.35060321867808"}}, "geometry": {"type": "Point", "coordinates": [-64.50838426283688, 12.605975225973989]}}]}